LYNK TOWER 4            
1 55034U 23001AB  26068.67743801  .00009160  00000+0  30014-3 0  9997
2 55034  97.3324 128.5940 0010321 112.3386 247.8950 15.31819885176588
STARLINK-33991          
1 64122U 25110AC  26068.14438285  .00050042  00000+0  16904-2 0  9993
2 64122  53.1603  28.9602 0001268  89.8434 270.2712 15.30199785 45799
